0 THOR ABLESTAR DEB
1 00653U 61015HE  13284.45199560  .00000462  00000-0  61321-3 0  3198
2 00653 067.4560 292.5993 0153761 046.2171 068.3995 13.63883487585545
0 THOR ABLESTAR DEB
1 00653U 61015HE  13287.08039639  .00000480  00000-0  63476-3 0  3205
2 00653 067.4560 286.6295 0153917 044.1083 013.8418 13.63886393585900
0 THOR ABLESTAR DEB
1 00653U 61015HE  13289.13591550  .00000546  00000-0  71081-3 0  3213
2 00653 067.4563 281.9612 0154044 042.4609 026.4564 13.63889669586183
0 THOR ABLESTAR DEB
1 00653U 61015HE  13291.19221248  .00000588  00000-0  75944-3 0  3225
2 00653 067.4566 277.2910 0154227 040.8027 042.9241 13.63891968586465
0 THOR ABLESTAR DEB
1 00653U 61015HE  13293.32487667  .00000741  00000-0  93607-3 0  3239
2 00653 067.4568 272.4477 0154600 039.0859 074.3730 13.63894717586759
0 THOR ABLESTAR DEB
1 00653U 61015HE  13296.10385895  .00000767  00000-0  96666-3 0  3245
2 00653 067.4568 266.1363 0154832 036.8557 039.2895 13.63899523587135
